{"type": "FeatureCollection", "features": [ {"type": "Feature", "properties": {"norad_id": 44622, "name": "GAOFEN-10R", "group": "resource", "lat": 7.2986578009401875, "lon": -68.63157118909872, "alt_km": 618.2627233737921, "timestamp": "2025-12-10T21:43:21.744282+00:00", "meta": {"OBJECT_NAME": "GAOFEN-10R", "OBJECT_ID": "2019-066A", "EPOCH": "2025-12-10T15:12:40.821984", "MEAN_MOTION": 14.82780843, "ECCENTRICITY": 0.00079775, "INCLINATION": 98.0276, "RA_OF_ASC_NODE": 292.1318, "ARG_OF_PERICENTER": 47.8344, "MEAN_ANOMALY": 312.3546, "EPHEMERIS_TYPE": 0, "CLASSIFICATION_TYPE": "U", "NORAD_CAT_ID": 44622, "ELEMENT_SET_NO": 999, "REV_AT_EPOCH": 33443, "BSTAR": 0.00034315592, "MEAN_MOTION_DOT": 2.721e-05, "MEAN_MOTION_DDOT": 0}, "tle": {"line1": "1 44622U 19066A   25344.63380581  .00002721  00000+0  34316-3 0  9993", "line2": "2 44622  98.0276 292.1318 0007977  47.8344 312.3546 14.82780843334434"}}, "geometry": {"type": "Point", "coordinates": [-68.63157118909872, 7.2986578009401875]}}, {"type": "Feature", "properties": {"norad_id": 44804, "name": "CARTOSAT-3", "group": "resource", "lat": -68.21158690650667, "lon": 63.641806188730136, "alt_km": 524.2493517814692, "timestamp": "2025-12-10T21:43:21.744293+00:00", "meta": {"OBJECT_NAME": "CARTOSAT-3", "OBJECT_ID": "2019-081A", "EPOCH": "2025-12-10T14:07:31.315296", "MEAN_MOTION": 15.19342567, "ECCENTRICITY": 0.00139869, "INCLINATION": 97.4579, "RA_OF_ASC_NODE": 44.1996, "ARG_OF_PERICENTER": 93.5404, "MEAN_ANOMALY": 266.7431, "EPHEMERIS_TYPE": 0, "CLASSIFICATION_TYPE": "U", "NORAD_CAT_ID": 44804, "ELEMENT_SET_NO": 999, "REV_AT_EPOCH": 33483, "BSTAR": 0.00036028009, "MEAN_MOTION_DOT": 7.566e-05, "MEAN_MOTION_DDOT": 0}, "tle": {"line1": "1 44804U 19081A   25344.58855689  .00007566  00000+0  36028-3 0  9996", "line2": "2 44804  97.4579  44.1996 0013986  93.5404 266.7431 15.19342567334831"}}, "geometry": {"type": "Point", "coordinates": [63.641806188730136, -68.21158690650667]}}, {"type": "Feature", "properties": {"norad_id": 44819, "name": "GAOFEN-12 01", "group": "resource", "lat": -69.84472646723793, "lon": 13.201405448776063, "alt_km": 633.9102659395548, "timestamp": "2025-12-10T21:43:21.744303+00:00", "meta": {"OBJECT_NAME": "GAOFEN-12 01", "OBJECT_ID": "2019-082A", "EPOCH": "2025-12-10T15:33:25.114176", "MEAN_MOTION": 14.80653592, "ECCENTRICITY": 0.00012183, "INCLINATION": 97.8127, "RA_OF_ASC_NODE": 350.9841, "ARG_OF_PERICENTER": 247.6602, "MEAN_ANOMALY": 112.4482, "EPHEMERIS_TYPE": 0, "CLASSIFICATION_TYPE": "U", "NORAD_CAT_ID": 44819, "ELEMENT_SET_NO": 999, "REV_AT_EPOCH": 32619, "BSTAR": 0.00011569847, "MEAN_MOTION_DOT": 8.38e-06, "MEAN_MOTION_DDOT": 0}, "tle": {"line1": "1 44819U 19082A   25344.64820734  .00000838  00000+0  11570-3 0  9993", "line2": "2 44819  97.8127 350.9841 0001218 247.6602 112.4482 14.80653592326197"}}, "geometry": {"type": "Point", "coordinates": [13.201405448776063, -69.84472646723793]}}, {"type": "Feature", "properties": {"norad_id": 44873, "name": "CSG-1", "group": "resource", "lat": 29.23919616438653, "lon": 161.80972071153994, "alt_km": 620.5411797650231, "timestamp": "2025-12-10T21:43:21.744313+00:00", "meta": {"OBJECT_NAME": "CSG-1", "OBJECT_ID": "2019-092A", "EPOCH": "2025-12-10T15:06:31.859424", "MEAN_MOTION": 14.82159799, "ECCENTRICITY": 0.00014472, "INCLINATION": 97.881, "RA_OF_ASC_NODE": 165.9855, "ARG_OF_PERICENTER": 84.6956, "MEAN_ANOMALY": 275.4422, "EPHEMERIS_TYPE": 0, "CLASSIFICATION_TYPE": "U", "NORAD_CAT_ID": 44873, "ELEMENT_SET_NO": 999, "REV_AT_EPOCH": 32354, "BSTAR": 0.00014041332, "MEAN_MOTION_DOT": 1.066e-05, "MEAN_MOTION_DDOT": 0}, "tle": {"line1": "1 44873U 19092A   25344.62953541  .00001066  00000+0  14041-3 0  9995", "line2": "2 44873  97.8810 165.9855 0001447  84.6956 275.4422 14.82159799323542"}}, "geometry": {"type": "Point", "coordinates": [161.80972071153994, 29.23919616438653]}}, {"type": "Feature", "properties": {"norad_id": 46277, "name": "NEMO-HD", "group": "resource", "lat": 14.611773966242813, "lon": -134.07969726151399, "alt_km": 446.7755330945474, "timestamp": "2025-12-10T21:43:21.744323+00:00", "meta": {"OBJECT_NAME": "NEMO-HD", "OBJECT_ID": "2020-061F", "EPOCH": "2025-12-10T14:46:16.862880", "MEAN_MOTION": 15.40255079, "ECCENTRICITY": 0.00020184, "INCLINATION": 97.2211, "RA_OF_ASC_NODE": 43.7401, "ARG_OF_PERICENTER": 58.6702, "MEAN_ANOMALY": 301.4742, "EPHEMERIS_TYPE": 0, "CLASSIFICATION_TYPE": "U", "NORAD_CAT_ID": 46277, "ELEMENT_SET_NO": 999, "REV_AT_EPOCH": 29291, "BSTAR": 0.00038878083, "MEAN_MOTION_DOT": 0.00015573, "MEAN_MOTION_DDOT": 0}, "tle": {"line1": "1 46277U 20061F   25344.61547295  .00015573  00000+0  38878-3 0  9999", "line2": "2 46277  97.2211  43.7401 0002018  58.6702 301.4742 15.40255079292910"}}, "geometry": {"type": "Point", "coordinates": [-134.07969726151399, 14.611773966242813]}}, {"type": "Feature", "properties": {"norad_id": 46984, "name": "SENTINEL-6A", "group": "resource", "lat": -64.19181632791067, "lon": 99.2684802876529, "alt_km": 1338.2144081440301, "timestamp": "2025-12-10T21:43:21.744334+00:00", "meta": {"OBJECT_NAME": "SENTINEL-6A", "OBJECT_ID": "2020-086A", "EPOCH": "2025-12-09T23:39:14.637312", "MEAN_MOTION": 12.8093052, "ECCENTRICITY": 0.00077304, "INCLINATION": 66.0391, "RA_OF_ASC_NODE": 168.0287, "ARG_OF_PERICENTER": 269.1798, "MEAN_ANOMALY": 90.8331, "EPHEMERIS_TYPE": 0, "CLASSIFICATION_TYPE": "U", "NORAD_CAT_ID": 46984, "ELEMENT_SET_NO": 999, "REV_AT_EPOCH": 23609, "BSTAR": 6.617319e-05, "MEAN_MOTION_DOT": -4.6e-07, "MEAN_MOTION_DDOT": 0}, "tle": {"line1": "1 46984U 20086A   25343.98558608 -.00000046  00000+0  66173-4 0  9990", "line2": "2 46984  66.0391 168.0287 0007730 269.1798  90.8331 12.80930520236093"}}, "geometry": {"type": "Point", "coordinates": [99.2684802876529, -64.19181632791067]}}, {"type": "Feature", "properties": {"norad_id": 48079, "name": "GAOFEN-12 02", "group": "resource", "lat": -59.29988661699324, "lon": -7.404856663691088, "alt_km": 636.6990969929993, "timestamp": "2025-12-10T21:43:21.744343+00:00", "meta": {"OBJECT_NAME": "GAOFEN-12 02", "OBJECT_ID": "2021-026A", "EPOCH": "2025-12-10T15:30:25.473888", "MEAN_MOTION": 14.80671309, "ECCENTRICITY": 0.00034937, "INCLINATION": 97.9851, "RA_OF_ASC_NODE": 338.6627, "ARG_OF_PERICENTER": 105.2445, "MEAN_ANOMALY": 254.9154, "EPHEMERIS_TYPE": 0, "CLASSIFICATION_TYPE": "U", "NORAD_CAT_ID": 48079, "ELEMENT_SET_NO": 999, "REV_AT_EPOCH": 25386, "BSTAR": 0.00012298681, "MEAN_MOTION_DOT": 8.92e-06, "MEAN_MOTION_DDOT": 0}, "tle": {"line1": "1 48079U 21026A   25344.64612817  .00000892  00000+0  12299-3 0  9996", "line2": "2 48079  97.9851 338.6627 0003493 105.2445 254.9154 14.80671309253867"}}, "geometry": {"type": "Point", "coordinates": [-7.404856663691088, -59.29988661699324]}}, {"type": "Feature", "properties": {"norad_id": 48268, "name": "PLEIADES NEO 3", "group": "resource", "lat": 0.08106838311926585, "lon": 57.36100058445031, "alt_km": 627.1256820856324, "timestamp": "2025-12-10T21:43:21.744353+00:00", "meta": {"OBJECT_NAME": "PLEIADES NEO 3", "OBJECT_ID": "2021-034A", "EPOCH": "2025-12-10T15:14:21.199776", "MEAN_MOTION": 14.81673059, "ECCENTRICITY": 0.0001371, "INCLINATION": 97.895, "RA_OF_ASC_NODE": 57.106, "ARG_OF_PERICENTER": 94.9453, "MEAN_ANOMALY": 265.1917, "EPHEMERIS_TYPE": 0, "CLASSIFICATION_TYPE": "U", "NORAD_CAT_ID": 48268, "ELEMENT_SET_NO": 999, "REV_AT_EPOCH": 24973, "BSTAR": 2.1076e-05, "MEAN_MOTION_DOT": 1.14e-06, "MEAN_MOTION_DDOT": 0}, "tle": {"line1": "1 48268U 21034A   25344.63496759  .00000114  00000+0  21076-4 0  9990", "line2": "2 48268  97.8950  57.1060 0001371  94.9453 265.1917 14.81673059249733"}}, "geometry": {"type": "Point", "coordinates": [57.36100058445031, 0.08106838311926585]}}, {"type": "Feature", "properties": {"norad_id": 49070, "name": "PLEIADES NEO 4", "group": "resource", "lat": -0.46481841761386233, "lon": -122.6963086239938, "alt_km": 627.1988887296857, "timestamp": "2025-12-10T21:43:21.744364+00:00", "meta": {"OBJECT_NAME": "PLEIADES NEO 4", "OBJECT_ID": "2021-073E", "EPOCH": "2025-12-09T14:07:00.443712", "MEAN_MOTION": 14.81679595, "ECCENTRICITY": 0.0001363, "INCLINATION": 97.8947, "RA_OF_ASC_NODE": 56.0703, "ARG_OF_PERICENTER": 89.0853, "MEAN_ANOMALY": 271.0516, "EPHEMERIS_TYPE": 0, "CLASSIFICATION_TYPE": "U", "NORAD_CAT_ID": 49070, "ELEMENT_SET_NO": 999, "REV_AT_EPOCH": 23329, "BSTAR": 7.8728e-05, "MEAN_MOTION_DOT": 5.68e-06, "MEAN_MOTION_DDOT": 0}, "tle": {"line1": "1 49070U 21073E   25343.58819958  .00000568  00000+0  78728-4 0  9997", "line2": "2 49070  97.8947  56.0703 0001363  89.0853 271.0516 14.81679595233299"}}, "geometry": {"type": "Point", "coordinates": [-122.6963086239938, -0.46481841761386233]}}, {"type": "Feature", "properties": {"norad_id": 49260, "name": "LANDSAT 9", "group": "resource", "lat": -1.1033098332576239, "lon": 53.202181523881855, "alt_km": 705.6609520833636, "timestamp": "2025-12-10T21:43:21.744374+00:00", "meta": {"OBJECT_NAME": "LANDSAT 9", "OBJECT_ID": "2021-088A", "EPOCH": "2025-12-10T15:08:08.172960", "MEAN_MOTION": 14.57127046, "ECCENTRICITY": 0.00011205, "INCLINATION": 98.2097, "RA_OF_ASC_NODE": 52.7724, "ARG_OF_PERICENTER": 95.127, "MEAN_ANOMALY": 265.0056, "EPHEMERIS_TYPE": 0, "CLASSIFICATION_TYPE": "U", "NORAD_CAT_ID": 49260, "ELEMENT_SET_NO": 999, "REV_AT_EPOCH": 22354, "BSTAR": 0.00017140802, "MEAN_MOTION_DOT": 7.27e-06, "MEAN_MOTION_DDOT": 0}, "tle": {"line1": "1 49260U 21088A   25344.63065015  .00000727  00000+0  17141-3 0  9996", "line2": "2 49260  98.2097  52.7724 0001120  95.1270 265.0056 14.57127046223540"}}, "geometry": {"type": "Point", "coordinates": [53.202181523881855, -1.1033098332576239]}}]}